ONEWEB-0578             
1 56067U 23043X   25188.38215950  .00000082  00000+0  16787-3 0  9994
2 56067  87.9271 312.7543 0001801  97.7349 262.3989 13.21824053112680
ONEWEB-0579             
1 56068U 23043Y   25187.91850380  .00000083  00000+0  16986-3 0  9997
2 56068  87.9269 312.8322 0002180 103.6967 256.4410 13.21823949112639
ONEWEB-0581             
1 56069U 23043Z   25188.20006549  .00000078  00000+0  17136-3 0  9993
2 56069  87.9051 297.5524 0001938 115.2510 244.8822 13.16593899113568
ONEWEB-0609             
1 56070U 23043AA  25188.87223930 -.00000116  00000+0 -34335-3 0  9998
2 56070  87.9068 327.8635 0001947  94.7413 265.3939 13.15548346112079
ONEWEB-0613             
1 56071U 23043AB  25187.95479886 -.00000066  00000+0 -20952-3 0  9994
2 56071  87.9073 328.0573 0002074 100.0578 260.0787 13.15548355111954
ONEWEB-0630             
1 56072U 23043AC  25188.78666919 -.00000116  00000+0 -34232-3 0  9994
2 56072  87.9069 327.8689 0002202  97.9947 262.1433 13.15548593112059
ONEWEB-0632             
1 56073U 23043AD  25187.94528857 -.00000092  00000+0 -27716-3 0  9992
2 56073  87.9070 328.0562 0001923 105.1685 254.9658 13.15548455111947
ONEWEB-0633             
1 56074U 23043AE  25187.93894005 -.00000028  00000+0 -10733-3 0  9993
2 56074  87.9065 328.0245 0002301  94.6768 265.4625 13.15549203111016
